CUBESAT XI-IV (CO-57)   
1 27848U 03031J   25150.57566597  .00000277  00000+0  14167-3 0  9996
2 27848  98.6787 158.9920 0008555 228.8324 131.2117 14.23324083136941
MOZHAYETS 4 (RS-22)     
1 27939U 03042A   25150.54604556  .00001201  00000+0  19808-3 0  9999
2 27939  98.3274 319.7560 0012332  46.8518  23.0421 14.72328412159358
IRS-P6 (RESOURCESAT-1)  
1 28051U 03046A   25150.58479016  .00000215  00000+0  86117-4 0  9996
2 28051  98.2416 199.7485 0065299  50.4692  72.8020 14.35975407125617
SAUDISAT 2              
1 28371U 04025F   25150.52012882  .00000370  00000+0  94173-4 0  9990
2 28371  98.5248 136.2494 0025613  34.6848 325.6013 14.56315348110044
COSMOS 2407             
1 28380U 04028A   25150.59770774  .00000054  00000+0  40349-4 0  9996
2 28380  82.9611 358.1589 0037965 241.5488 184.4755 13.76290633 47253
COSMOS 2414             
1 28521U 05002A   25150.58193857  .00000065  00000+0  41481-4 0  9996
2 28521  82.9488 333.0202 0039665 342.4183  17.5604 13.87874108 30740
INMARSAT 4-F1           
1 28628U 05009A   25150.47818318  .00000026  00000+0  00000+0 0  9999
2 28628   4.6763  42.1884 0002604  31.3716 164.8956  1.00271469 73834
HAMSAT (VO-52)          
1 28650U 05017B   25150.57717296  .00004030  00000+0  28689-3 0  9993
2 28650  98.0021 153.3822 0019623 247.3832 112.5318 15.05087178 89120
NOAA 18                 
1 28654U 05018A   25150.57126248  .00000220  00000+0  13984-3 0  9998
2 28654  98.8423 230.1599 0014825 154.0840 206.1077 14.13605558 32255
SJ-7                    
1 28737U 05024A   25150.56629401  .00006965  00000+0  38017-3 0  9991
2 28737  97.7583 166.6434 0016372 274.7124  85.2237 15.14558979 89989
CUBESAT XI-V            
1 28895U 05043F   25150.38297578  .00001660  00000+0  27875-3 0  9990
2 28895  98.2486 294.6067 0013989 344.4092  15.6681 14.70980525 45446
CLOUDSAT                
1 29107U 06016A   25150.57170731  .00001301  00000+0  15878-3 0  9992
2 29107  98.4219 161.1396 0006544 120.7768 239.4090 14.85203486 17692
CALIPSO                 
1 29108U 06016B   25150.57857035  .00000987  00000+0  18055-3 0  9991
2 29108  98.4466 148.4312 0001777  77.1874 282.9528 14.68207425 16897
HINODE (SOLAR-B)        
1 29479U 06041A   25150.60128195  .00000890  00000+0  16381-3 0  9995
2 29479  98.0720 167.1701 0019033  63.8283 296.4876 14.67896276998721
METOP-A                 
1 29499U 06044A   25150.53085539  .00002432  00000+0  29428-3 0  9996
2 29499  98.3303 241.0082 0178893 207.4024 281.8132 14.73956020969043
SHIJIAN-6 02B (SJ-6 02B)
1 29506U 06046B   25150.58284935  .00000581  00000+0  51678-4 0  9999
2 29506  97.7077 178.2201 0002107 280.5013  79.5973 14.99841335 13361
DMSP 5D-3 F17 (USA 191) 
1 29522U 06050A   25150.59963926  .00000063  00000+0  55062-4 0  9993
2 29522  98.7385 160.0224 0011278  70.7567 289.4825 14.14832930958317
LAPAN-TUBSAT            
1 29709U 07001A   25150.56141726  .00000653  00000+0  82562-4 0  9990
2 29709  98.1089 136.9026 0012183 358.1934   1.9234 14.85322224994340
HAIYANG-1B              
1 31113U 07010A   25150.52389818  .00000099  00000+0  53431-4 0  9991
2 31113  98.3136 143.0907 0012259 254.8440 105.1388 14.30889929945907
BEIDOU-2 M1             
1 31115U 07011A   25148.28033225  .00000004  00000+0  00000+0 0  9997
2 31115  51.0760 232.0715 0001109 348.7441  11.3204  1.77349240 69322
CAPE-1                  
1 31130U 07012P   25150.60180747  .00001113  00000+0  21431-3 0  9993
2 31130  98.3975 111.4772 0085390 184.0129 176.0398 14.63362367962365
CBERS 2B                
1 32062U 07042A   25150.61680132  .00000271  00000+0  96638-4 0  9991
2 32062  98.3478  98.0820 0032180  48.5239 124.4587 14.41180716929572
COSMO-SKYMED 2          
1 32376U 07059A   25150.57894739  .00000492  00000+0  68299-4 0  9999
2 32376  97.8873 334.7312 0001358  91.6095 268.5274 14.82154433945327
CARTOSAT-2A             
1 32783U 08021A   25150.57816801  .00000823  00000+0  11892-3 0  9999
2 32783  97.8158 206.2366 0009812 274.2239  85.7851 14.78737641922259
CUTE-1.7+APD II (CO-65) 
1 32785U 08021C   25150.56156619  .00004372  00000+0  31801-3 0  9999
2 32785  97.7847 121.6528 0007924 240.8745 119.1688 15.04328129927575
COMPASS-1               
1 32787U 08021E   25150.49676184  .00045989  00000+0  10002-2 0  9995
2 32787  97.6440 140.2130 0007789  74.0002 286.2103 15.44152992930695
SEEDS II (CO-66)        
1 32791U 08021J   25150.49041691  .00012892  00000+0  62850-3 0  9995
2 32791  97.7276 130.3092 0003586 169.6403 190.4905 15.18459542928967
YUBILEINY (RS-30)       
1 32953U 08025A   25150.58357431  .00000032  00000+0  15988-3 0  9994
2 32953  82.5038 233.3925 0020360  70.1792 290.1480 12.43164676772150
FENGYUN 3A              
1 32958U 08026A   25150.58671884  .00000132  00000+0  82934-4 0  9998
2 32958  98.6476  94.5517 0009255 144.1722 216.0076 14.19441917881125
HUANJING 1A (HJ-1A)     
1 33320U 08041A   25150.55162916  .00001466  00000+0  18767-3 0  9990
2 33320  97.6404 147.2944 0018275 318.4345  41.5479 14.82670224901685
HUANJING 1B (HJ-1B)     
1 33321U 08041B   25150.57843087  .00001145  00000+0  14829-3 0  9997
2 33321  97.6290 151.4676 0037116   1.3588 358.7720 14.82226090901804
SHIJIAN-6 03A (SJ-6 03A)
1 33408U 08053A   25150.58153838  .00006502  00000+0  38331-3 0  9991
2 33408  97.8725 166.2677 0011196 239.5081 120.5043 15.11891383905288
SHIJIAN-6 03B (SJ-6 03B)
1 33409U 08053B   25150.58770582  .00001247  00000+0  98402-4 0  9990
2 33409  97.8691 159.2580 0018866 249.9419 109.9775 15.02518782905267
CHUANGXIN 1-02 (CX-1-02)
1 33434U 08056B   25150.58827590  .00000091  00000+0  52222-4 0  9999
2 33434  98.6465 174.9405 0014315 178.8029 181.3190 14.30041569863931
STARS (KUKAI)           
1 33498U 09002G   25150.52578724  .00003998  00000+0  40244-3 0  9996
2 33498  98.1244  79.3756 0009112   1.7459 358.3789 14.91760066881351
KKS-1 (KISEKI)          
1 33499U 09002H   25150.52828316  .00001511  00000+0  19925-3 0  9993
2 33499  98.1212  62.4574 0009643  89.1049 271.1268 14.81589713879507
NOAA 19                 
1 33591U 09005A   25150.50530883  .00000189  00000+0  12481-3 0  9996
2 33591  98.9976 215.1531 0014265  36.5689 323.6454 14.13368908840422
YAOGAN-6                
1 34839U 09021A   25150.45692295  .00387235  72541-4  51171-3 0  9993
2 34839  97.1870 131.6155 0001805 157.1367 202.9996 16.06811720897796
UK-DMC 2                
1 35683U 09041C   25150.63584744  .00000888  00000+0  13881-3 0  9990
2 35683  97.8306 291.4952 0001714  90.9307 269.2099 14.75118346850159
METEOR-M 1              
1 35865U 09049A   25150.59257271  .00000103  00000+0  65295-4 0  9994
2 35865  98.6849 112.0779 0002156   7.8686 352.2526 14.23019954814836
OCEANSAT-2              
1 35931U 09051A   25150.59685307 -.00000190  00000+0 -10426-3 0  9999
2 35931  98.2232 171.0204 0015941 232.7753 127.1960 13.99586977825817
SWISSCUBE               
1 35932U 09051B   25150.63370219  .00001155  00000+0  24383-3 0  9995
2 35932  98.4315  46.6818 0006368 333.9969  26.0910 14.61311149833263
BEESAT-1                
1 35933U 09051C   25150.53559821  .00000982  00000+0  21154-3 0  9993
2 35933  98.4245  46.9538 0005158 351.2924   8.8186 14.60729038833305
ITUPSAT1                
1 35935U 09051E   25150.61279471  .00000901  00000+0  19997-3 0  9997
2 35935  98.4340  46.5814 0007546 355.2737   4.8390 14.59528278832915
DMSP 5D-3 F18 (USA 210) 
1 35951U 09057A   25150.53136498  .00000262  00000+0  15920-3 0  9995
2 35951  98.8588 128.1934 0009884 258.1419 101.8646 14.14625732805484
PROBA-2                 
1 36037U 09059B   25150.46243682  .00000239  00000+0  66569-4 0  9999
2 36037  98.2374 334.3491 0013780  28.0366 332.1571 14.54552108825883
YAOGAN-7                
1 36110U 09069A   25150.57661441  .00000544  00000+0  83606-4 0  9991
2 36110  98.0571  32.8151 0024538 188.8722 171.2057 14.77409561833125
XIWANG-1 (HOPE-1)       
1 36122U 09072B   25150.58621489 -.00000012  00000+0  83760-4 0  9999
2 36122 100.3483 106.5736 0007906  32.4430 327.7168 13.16424726742666
RADUGA-1M 2             
1 36358U 10002A   25150.50363916 -.00000190  00000+0  00000+0 0  9993
2 36358   2.6233  83.7036 0005707 258.2244  33.9128  0.98967317 46237
COSMOS 2463             
1 36519U 10017A   25150.60008189  .00000043  00000+0  30698-4 0  9994
2 36519  82.9599 170.8218 0037580 110.9643   8.2972 13.71627982755485
CARTOSAT-2B             
1 36795U 10035A   25150.61394112  .00000802  00000+0  11593-3 0  9990
2 36795  97.8095 205.6498 0011272   0.4997 359.6224 14.78769487803313
AISSAT 1                
1 36797U 10035C   25150.60519808  .00002742  00000+0  25629-3 0  9992
2 36797  98.1358  31.0967 0008052 238.3194 121.7240 14.95013808807011
TISAT 1                 
1 36799U 10035E   25150.49698291  .00012426  00000+0  64303-3 0  9997
2 36799  98.0594  63.9254 0004902 116.1261 244.0475 15.16383158809445
YAOGAN-10               
1 36834U 10038A   25150.61969525  .00000678  00000+0  87508-4 0  9994
2 36834  97.9259 171.7528 0001404  89.9985  24.0993 14.84192220800441
SHIJIAN-6 04B (SJ-6 04B)
1 37180U 10051B   25150.54263529  .00001831  00000+0  15908-3 0  9993
2 37180  97.8607 147.4957 0011999 141.8658 218.3416 14.98224183798367
FENGYUN 3B              
1 37214U 10059A   25150.64034981  .00000067  00000+0  58298-4 0  9998
2 37214  99.0133 188.9279 0022010 187.4716 285.4202 14.14727601753334
COSMO-SKYMED 4          
1 37216U 10060A   25150.59158088  .00000474  00000+0  66126-4 0  9992
2 37216  97.8872 334.7471 0001399  92.4087 267.7286 14.82147148787890
O/OREOS (USA 219)       
1 37224U 10062C   25150.57107024  .00002392  00000+0  24508-3 0  9993
2 37224  71.9711 225.4570 0012941  73.3393 286.9196 14.91416698 59550
ELEKTRO-L 1 (GOMS 2)    
1 37344U 11001A   25150.30823527 -.00000157  00000+0  00000+0 0  9999
2 37344   8.8163  58.3176 0004650  25.1245 257.8187  1.00250014 52641
